ONEWEB-0661             
1 55821U 23029AB  23360.33896938 -.00000173  00000+0 -50078-3 0  9995
2 55821  87.8987 109.6538 0001297 123.6844 236.4410 13.14503733 40643
ONEWEB-0662             
1 55822U 23029AC  23360.83056010  .00000204  00000+0  51524-3 0  9990
2 55822  87.8988 109.5643 0001682 123.5471 236.5820 13.14502103 41461
ONEWEB-0663             
1 55823U 23029AD  23360.34350493 -.00000060  00000+0 -17978-3 0  9996
2 55823  87.9205  94.3870 0001774 123.9973 236.1329 13.20775708 41832
ONEWEB-0664             
1 55824U 23029AE  23360.33719054 -.00000423  00000+0 -10734-2 0  9993
2 55824  87.9205  94.3997 0001240 100.7618 259.3655 13.20778220 41831
ONEWEB-0665             
1 55825U 23029AF  23360.33579337 -.00000139  00000+0 -40889-3 0  9991
2 55825  87.8988 109.6297 0001566 124.8139 235.3138 13.14503639 40661
ONEWEB-0666             
1 55826U 23029AG  23360.78541661  .00000044  00000+0  76270-4 0  9997
2 55826  87.9205  94.3020 0001775  91.2472 268.8865 13.20775977 42582
ONEWEB-0667             
1 55827U 23029AH  23360.32456506  .00000078  00000+0  16025-3 0  9999
2 55827  87.9203  94.3279 0001474 117.3682 242.7601 13.20774962 41835
ONEWEB-0669             
1 55828U 23029AJ  23360.31984147  .00000095  00000+0  20158-3 0  9997
2 55828  87.9205  94.3675 0001271  76.8836 283.2439 13.20774014 41830
